start=new Date('2023-04-19T00:00:00.000Z').valueOf();
sats=[{"ELEMENT_SET_NO":"999","EPOCH":"2023-04-18T20:00:56.729088","NORAD_CAT_ID":"47817","APOAPSIS":"547.979","DECAY_DATE":null,"GP_ID":"230328767","COUNTRY_CODE":"US","REV_AT_EPOCH":"11744","CENTER_NAME":"EARTH","ARG_OF_PERICENTER":"79.3281","RCS_SIZE":"LARGE","MEAN_MOTION_DDOT":"0.0000000000000","INCLINATION":"53.0547","MEAN_MOTION":"15.06410588","RA_OF_ASC_NODE":"311.5386","PERIOD":"95.591","CLASSIFICATION_TYPE":"U","TLE_LINE1":"1 47817U 21018AG  23108.83398992  .00028517  00000-0  19251-2 0  9997","LAUNCH_DATE":"2021-03-11","MEAN_MOTION_DOT":"0.00028517","EPHEMERIS_TYPE":"0","BSTAR":"0.00192510000000","OBJECT_TYPE":"PAYLOAD","FILE":"3889987","TLE_LINE2":"2 47817  53.0547 311.5386 0001152  79.3281 280.7837 15.06410588117449","TIME_SYSTEM":"UTC","PERIAPSIS":"546.383","SITE":"AFETR","ECCENTRICITY":"0.00011520","OBJECT_NAME":"STARLINK-2400","SEMIMAJOR_AXIS":"6925.316","REF_FRAME":"TEME","MEAN_ELEMENT_THEORY":"SGP4","OBJECT_ID":"2021-018AG","MEAN_ANOMALY":"280.7837"},{"PERIAPSIS":"546.782","SITE":"AFETR","OBJECT_NAME":"STARLINK-2401","ECCENTRICITY":"0.00006380","SEMIMAJOR_AXIS":"6925.359","REF_FRAME":"TEME","MEAN_ELEMENT_THEORY":"SGP4","OBJECT_ID":"2021-018AH","MEAN_ANOMALY":"264.9265","TLE_LINE1":"1 47818U 21018AH  23108.86025629  .00023686  00000-0  16038-2 0  9997","LAUNCH_DATE":"2021-03-11","MEAN_MOTION_DOT":"0.00023686","EPHEMERIS_TYPE":"0","BSTAR":"0.00160380000000","OBJECT_TYPE":"PAYLOAD","FILE":"3889987","TIME_SYSTEM":"UTC","TLE_LINE2":"2 47818  53.0541 316.4109 0000638  95.1797 264.9265 15.06396629117388","RCS_SIZE":"LARGE","MEAN_MOTION_DDOT":"0.0000000000000","INCLINATION":"53.0541","MEAN_MOTION":"15.06396629","RA_OF_ASC_NODE":"316.4109","PERIOD":"95.592","CLASSIFICATION_TYPE":"U","ELEMENT_SET_NO":"999","EPOCH":"2023-04-18T20:38:46.143456","NORAD_CAT_ID":"47818","APOAPSIS":"547.666","DECAY_DATE":null,"GP_ID":"230329515","COUNTRY_CODE":"US","REV_AT_EPOCH":"11738","ARG_OF_PERICENTER":"95.1797","CENTER_NAME":"EARTH"},{"MEAN_ANOMALY":"290.4273","REF_FRAME":"TEME","OBJECT_ID":"2021-018AJ","MEAN_ELEMENT_THEORY":"SGP4","OBJECT_NAME":"STARLINK-2402","SITE":"AFETR","ECCENTRICITY":"0.00007750","SEMIMAJOR_AXIS":"6925.282","PERIAPSIS":"546.610","BSTAR":"0.00240070000000","TLE_LINE2":"2 47819  53.0537 311.5170 0000775  69.6799 290.4273 15.06421658117517","TIME_SYSTEM":"UTC","OBJECT_TYPE":"PAYLOAD","FILE":"3889987","LAUNCH_DATE":"2021-03-11","MEAN_MOTION_DOT":"0.00035679","TLE_LINE1":"1 47819U 21018AJ  23108.83676453  .00035679  00000-0  24007-2 0  9992","EPHEMERIS_TYPE":"0","RA_OF_ASC_NODE":"311.5170","MEAN_MOTION":"15.06421658","CLASSIFICATION_TYPE":"U","PERIOD":"95.591","RCS_SIZE":"LARGE","INCLINATION":"53.0537","MEAN_MOTION_DDOT":"0.0000000000000","DECAY_DATE":null,"GP_ID":"230329766","ARG_OF_PERICENTER":"69.6799","CENTER_NAME":"EARTH","COUNTRY_CODE":"US","REV_AT_EPOCH":"11751","EPOCH":"2023-04-18T20:04:56.455392","ELEMENT_SET_NO":"999","APOAPSIS":"547.684","NORAD_CAT_ID":"47819"},{"CLASSIFICATION_TYPE":"U","PERIOD":"95.593","RA_OF_ASC_NODE":"321.3082","MEAN_MOTION":"15.06393452","RCS_SIZE":"LARGE","MEAN_MOTION_DDOT":"0.0000000000000","INCLINATION":"53.0525","CENTER_NAME":"EARTH","ARG_OF_PERICENTER":"86.4459","COUNTRY_CODE":"US","REV_AT_EPOCH":"11698","GP_ID":"230306647","DECAY_DATE":null,"APOAPSIS":"548.039","NORAD_CAT_ID":"47820","EPOCH":"2023-04-18T21:13:57.713664","ELEMENT_SET_NO":"999","MEAN_ANOMALY":"273.6662","REF_FRAME":"TEME","OBJECT_ID":"2021-018AK","MEAN_ELEMENT_THEORY":"SGP4","OBJECT_NAME":"STARLINK-2403","SITE":"AFETR","ECCENTRICITY":"0.00011630","SEMIMAJOR_AXIS":"6925.369","PERIAPSIS":"546.428","TLE_LINE2":"2 47820  53.0525 321.3082 0001163  86.4459 273.6662 15.06393452116984","TIME_SYSTEM":"UTC","OBJECT_TYPE":"PAYLOAD","FILE":"3889879","BSTAR":"0.00082922000000","EPHEMERIS_TYPE":"0","LAUNCH_DATE":"2021-03-11","MEAN_MOTION_DOT":"0.00012089","TLE_LINE1":"1 47820U 21018AK  23108.88469576  .00012089  00000-0  82922-3 0  9996"},{"EPHEMERIS_TYPE":"0","TLE_LINE1":"1 47821U 21018AL  23108.86351493  .00023906  00000-0  16188-2 0  9993","LAUNCH_DATE":"2021-03-11","MEAN_MOTION_DOT":"0.00023906","OBJECT_TYPE":"PAYLOAD","FILE":"3889987","TLE_LINE2":"2 47821  53.0532 311.4156 0000880  70.1566 289.9517 15.06389718117451","TIME_SYSTEM":"UTC","BSTAR":"0.00161880000000","PERIAPSIS":"546.636","ECCENTRICITY":"0.00008800","SITE":"AFETR","OBJECT_NAME":"STARLINK-2406","SEMIMAJOR_AXIS":"6925.380","REF_FRAME":"TEME","OBJECT_ID":"2021-018AL","MEAN_ELEMENT_THEORY":"SGP4","MEAN_ANOMALY":"289.9517","NORAD_CAT_ID":"47821","APOAPSIS":"547.855","ELEMENT_SET_NO":"999","EPOCH":"2023-04-18T20:43:27.689952","COUNTRY_CODE":"US","REV_AT_EPOCH":"11745","CENTER_NAME":"EARTH","ARG_OF_PERICENTER":"70.1566","GP_ID":"230329267","DECAY_DATE":null,"RCS_SIZE":"LARGE","INCLINATION":"53.0532","MEAN_MOTION_DDOT":"0.0000000000000","PERIOD":"95.593","CLASSIFICATION_TYPE":"U","MEAN_MOTION":"15.06389718","RA_OF_ASC_NODE":"311.4156"},{"MEAN_MOTION":"15.06401187","RA_OF_ASC_NODE":"321.9501","PERIOD":"95.592","CLASSIFICATION_TYPE":"U","RCS_SIZE":"LARGE","MEAN_MOTION_DDOT":"0.0000000000000","INCLINATION":"53.0544","DECAY_DATE":null,"GP_ID":"230305758","REV_AT_EPOCH":"11696","COUNTRY_CODE":"US","ARG_OF_PERICENTER":"60.8860","CENTER_NAME":"EARTH","ELEMENT_SET_NO":"999","EPOCH":"2023-04-18T17:45:35.574048","NORAD_CAT_ID":"47822","APOAPSIS":"547.342","MEAN_ELEMENT_THEORY":"SGP4","OBJECT_ID":"2021-018AM","REF_FRAME":"TEME","MEAN_ANOMALY":"299.2148","PERIAPSIS":"547.078","SEMIMAJOR_AXIS":"6925.345","SITE":"AFETR","OBJECT_NAME":"STARLINK-2407","ECCENTRICITY":"0.00001900","BSTAR":"0.00180410000000","FILE":"3889849","OBJECT_TYPE":"PAYLOAD","TLE_LINE2":"2 47822  53.0544 321.9501 0000190  60.8860 299.2148 15.06401187116966","TIME_SYSTEM":"UTC","TLE_LINE1":"1 47822U 21018AM  23108.73999507  .00026694  00000-0  18041-2 0  9991","MEAN_MOTION_DOT":"0.00026694","LAUNCH_DATE":"2021-03-11","EPHEMERIS_TYPE":"0"},{"FILE":"3889987","OBJECT_TYPE":"PAYLOAD","TIME_SYSTEM":"UTC","TLE_LINE2":"2 47823  53.0526 311.5811 0000550  80.0063 280.0988 15.06379710117456","BSTAR":"0.00121930000000","EPHEMERIS_TYPE":"0","TLE_LINE1":"1 47823U 21018AN  23108.82201877  .00017917  00000-0  12193-2 0  9998","MEAN_MOTION_DOT":"0.00017917","LAUNCH_DATE":"2021-03-11","OBJECT_ID":"2021-018AN","MEAN_ELEMENT_THEORY":"SGP4","REF_FRAME":"TEME","MEAN_ANOMALY":"280.0988","PERIAPSIS":"546.895","SEMIMAJOR_AXIS":"6925.411","SITE":"AFETR","OBJECT_NAME":"STARLINK-2408","ECCENTRICITY":"0.00005500","REV_AT_EPOCH":"11745","COUNTRY_CODE":"US","ARG_OF_PERICENTER":"80.0063","CENTER_NAME":"EARTH","DECAY_DATE":null,"GP_ID":"230330266","NORAD_CAT_ID":"47823","APOAPSIS":"547.657","ELEMENT_SET_NO":"999","EPOCH":"2023-04-18T19:43:42.421728","PERIOD":"95.593","CLASSIFICATION_TYPE":"U","MEAN_MOTION":"15.06379710","RA_OF_ASC_NODE":"311.5811","RCS_SIZE":"LARGE","INCLINATION":"53.0526","MEAN_MOTION_DDOT":"0.0000000000000"},{"OBJECT_TYPE":"PAYLOAD","FILE":"3889879","TIME_SYSTEM":"UTC","TLE_LINE2":"2 47824  53.0536 311.9350 0001209 154.9265 205.1783 15.06390474117100","BSTAR":"0.00198560000000","EPHEMERIS_TYPE":"0","TLE_LINE1":"1 47824U 21018AP  23108.74555682  .00029410  00000-0  19856-2 0  9990","LAUNCH_DATE":"2021-03-11","MEAN_MOTION_DOT":"0.00029410","REF_FRAME":"TEME","OBJECT_ID":"2021-018AP","MEAN_ELEMENT_THEORY":"SGP4","MEAN_ANOMALY":"205.1783","PERIAPSIS":"546.405","OBJECT_NAME":"STARLINK-2409","SITE":"AFETR","ECCENTRICITY":"0.00012090","SEMIMAJOR_AXIS":"6925.378","COUNTRY_CODE":"US","REV_AT_EPOCH":"11710","ARG_OF_PERICENTER":"154.9265","CENTER_NAME":"EARTH","DECAY_DATE":null,"GP_ID":"230306660","NORAD_CAT_ID":"47824","APOAPSIS":"548.080","ELEMENT_SET_NO":"999","EPOCH":"2023-04-18T17:53:36.109248","PERIOD":"95.593","CLASSIFICATION_TYPE":"U","MEAN_MOTION":"15.06390474","RA_OF_ASC_NODE":"311.9350","RCS_SIZE":"LARGE","INCLINATION":"53.0536","MEAN_MOTION_DDOT":"0.0000000000000"},{"OBJECT_ID":"2021-018AQ","MEAN_ELEMENT_THEORY":"SGP4","REF_FRAME":"TEME","MEAN_ANOMALY":"277.0509","PERIAPSIS":"545.823","SEMIMAJOR_AXIS":"6925.338","ECCENTRICITY":"0.00019920","SITE":"AFETR","OBJECT_NAME":"STARLINK-2410","BSTAR":"0.00164740000000","FILE":"3889987","OBJECT_TYPE":"PAYLOAD","TLE_LINE2":"2 47825  53.0540 311.5543 0001992  83.0707 277.0509 15.06403459117458","TIME_SYSTEM":"UTC","TLE_LINE1":"1 47825U 21018AQ  23108.83032976  .00024344  00000-0  16474-2 0  9991","MEAN_MOTION_DOT":"0.00024344","LAUNCH_DATE":"2021-03-11","EPHEMERIS_TYPE":"0","MEAN_MOTION":"15.06403459","RA_OF_ASC_NODE":"311.5543","PERIOD":"95.592","CLASSIFICATION_TYPE":"U","RCS_SIZE":"LARGE","INCLINATION":"53.0540","MEAN_MOTION_DDOT":"0.0000000000000","GP_ID":"230328768","DECAY_DATE":null,"REV_AT_EPOCH":"11745","COUNTRY_CODE":"US","CENTER_NAME":"EARTH","ARG_OF_PERICENTER":"83.0707","ELEMENT_SET_NO":"999","EPOCH":"2023-04-18T19:55:40.491264","NORAD_CAT_ID":"47825","APOAPSIS":"548.582"},{"MEAN_MOTION_DDOT":"0.0000000000000","RCS_SIZE":"LARGE","INCLINATION":"53.0529","CLASSIFICATION_TYPE":"U","PERIOD":"95.591","RA_OF_ASC_NODE":"311.5698","MEAN_MOTION":"15.06420781","APOAPSIS":"548.405","NORAD_CAT_ID":"47826","EPOCH":"2023-04-18T19:50:21.317568","ELEMENT_SET_NO":"999","ARG_OF_PERICENTER":"86.9369","CENTER_NAME":"EARTH","COUNTRY_CODE":"US","REV_AT_EPOCH":"11745","GP_ID":"230329516","DECAY_DATE":null,"SITE":"AFETR","OBJECT_NAME":"STARLINK-2411","ECCENTRICITY":"0.00018120","SEMIMAJOR_AXIS":"6925.285","PERIAPSIS":"545.895","MEAN_ANOMALY":"273.1827","REF_FRAME":"TEME","MEAN_ELEMENT_THEORY":"SGP4","OBJECT_ID":"2021-018AR","EPHEMERIS_TYPE":"0","LAUNCH_DATE":"2021-03-11","MEAN_MOTION_DOT":"0.00028452","TLE_LINE1":"1 47826U 21018AR  23108.82663562  .00028452  00000-0  19202-2 0  9998","TIME_SYSTEM":"UTC","TLE_LINE2":"2 47826  53.0529 311.5698 0001812  86.9369 273.1827 15.06420781117451","OBJECT_TYPE":"PAYLOAD","FILE":"3889987","BSTAR":"0.00192020000000"}];
